{
  "norad_id": 52859,
  "name": "STARLINK-4196",
  "history": [
    {
      "epoch": "2026-03-28T21:17:21.595200",
      "apogee_km": 540.6156545808244,
      "perigee_km": 539.0223109588733,
      "latitude_deg": -10.62329463238969,
      "longitude_deg": -88.94267200003378,
      "semi_major_axis_km": 6917.955982769849,
      "eccentricity": 0.00011516,
      "inclination_deg": 53.2164,
      "raan_deg": 297.943,
      "arg_perigee_deg": 86.7478,
      "mean_anomaly_deg": 273.3646,
      "mean_motion_rev_day": 15.08815269
    }
  ]
}