{"fetched_at":"2026-03-29T16:36:15Z","count":15609,"tles":[{"name":"STARLINK-4196","line1":"1 52859U 22062AF  26087.88705550  .00001549  00000+0  11546-3 0  9990","line2":"2 52859  53.2164 297.9430 0001151  86.7478 273.3646 15.08815269208820","category":"Starlink"}]}